ONEWEB-0281             
1 48999U 21060AJ  23335.76401100  .00000185  00000+0  44934-3 0  9993
2 48999  87.9090  53.5498 0001644  95.7887 264.3431 13.16595289118773
ONEWEB-0282             
1 49000U 21060AK  23335.71756962 -.00000010  00000+0 -59289-4 0  9990
2 49000  87.9090  53.5754 0001620 119.4030 240.7263 13.16594026118757
ONEWEB-0283             
1 49001U 21060AL  23335.78300514  .00000140  00000+0  33280-3 0  9990
2 49001  87.9077  53.5756 0001657  98.7868 261.3451 13.16596213118773
ONEWEB-0284             
1 49002U 21060AM  23335.16869929  .00000182  00000+0  44121-3 0  9995
2 49002  87.9077  53.6922 0001656 114.4967 245.6337 13.16595711118663
ONEWEB-0285             
1 49075U 21075A   23334.65397441 -.00012097  00000+0 -33668-1 0  9991
2 49075  87.9009 175.5411 0001540  91.1717 268.9588 13.12519714114264
ONEWEB-0286             
1 49076U 21075B   23334.62521662  .00000431  00000+0  11618-2 0  9992
2 49076  87.9007 175.5559 0001894  79.8061 280.3281 13.12443048113615
ONEWEB-0287             
1 49077U 21075C   23335.16539910  .00000014  00000+0  24772-5 0  9993
2 49077  87.9215 190.5477 0001889  89.7710 270.3638 13.17648703112252
ONEWEB-0288             
1 49078U 21075D   23335.60040297 -.00000151  00000+0 -45416-3 0  9998
2 49078  87.9003 175.3675 0001700  89.5828 270.5496 13.12447617114374
